[{"spaceTrack":{"CCSDS_OMM_VERS":"2.0","COMMENT":"GENERATED VIA SPACE-TRACK.ORG API","CREATION_DATE":"2020-09-19 22:46:10","ORIGINATOR":"18 SPCS","OBJECT_NAME":"STARLINK-1063","OBJECT_ID":"2019-074BH","CENTER_NAME":"EARTH","REF_FRAME":"TEME","TIME_SYSTEM":"UTC","MEAN_ELEMENT_THEORY":"SGP4","EPOCH":"2020-09-19 22:00:00.999936","MEAN_MOTION":15.05595161,"ECCENTRICITY":0.0001515,"INCLINATION":53.0011,"RA_OF_ASC_NODE":190.479,"ARG_OF_PERICENTER":76.7158,"MEAN_ANOMALY":185.2022,"EPHEMERIS_TYPE":0,"CLASSIFICATION_TYPE":"U","NORAD_CAT_ID":44768,"ELEMENT_SET_NO":999,"REV_AT_EPOCH":4741,"BSTAR":-0.0015739,"MEAN_MOTION_DOT":-0.00023146,"MEAN_MOTION_DDOT":0,"SEMIMAJOR_AXIS":6927.816,"PERIOD":95.643,"APOAPSIS":550.73,"PERIAPSIS":548.631,"OBJECT_TYPE":"PAYLOAD","RCS_SIZE":"LARGE","COUNTRY_CODE":"US","LAUNCH_DATE":"2019-11-11","SITE":"AFETR","DECAY_DATE":null,"DECAYED":0,"FILE":2828429,"GP_ID":161737067,"TLE_LINE0":"0 STARLINK-1063","TLE_LINE1":"1 44768U 19074BH  20263.91667824 -.00023146  00000-0 -15739-2 0  9991","TLE_LINE2":"2 44768  53.0011 190.4790 0001515  76.7158 185.2022 15.05595161 47411"},"version":"v1.0","launch":"5eb87d39ffd86e000604b37d","longitude":-126.82392861408405,"latitude":-52.74803207962565,"height_km":569.092599667737,"velocity_kms":7.575753976675428,"id":"5eed7714096e59000698568f"},{"spaceTrack":{"CCSDS_OMM_VERS":"2.0","COMMENT":"GENERATED VIA SPACE-TRACK.ORG API","CREATION_DATE":"2020-09-20 14:46:10","ORIGINATOR":"18 SPCS","OBJECT_NAME":"STARLINK-1033","OBJECT_ID":"2019-074AB","CENTER_NAME":"EARTH","REF_FRAME":"TEME","TIME_SYSTEM":"UTC","MEAN_ELEMENT_THEORY":"SGP4","EPOCH":"2020-09-20 14:00:01.000224","MEAN_MOTION":15.05595494,"ECCENTRICITY":0.0001826,"INCLINATION":52.9986,"RA_OF_ASC_NODE":167.4902,"ARG_OF_PERICENTER":64.6525,"MEAN_ANOMALY":194.4588,"EPHEMERIS_TYPE":0,"CLASSIFICATION_TYPE":"U","NORAD_CAT_ID":44738,"ELEMENT_SET_NO":999,"REV_AT_EPOCH":4778,"BSTAR":-0.00025289,"MEAN_MOTION_DOT":-0.00003964,"MEAN_MOTION_DDOT":0,"SEMIMAJOR_AXIS":6927.815,"PERIOD":95.643,"APOAPSIS":550.945,"PERIAPSIS":548.415,"OBJECT_TYPE":"PAYLOAD","RCS_SIZE":"LARGE","COUNTRY_CODE":"US","LAUNCH_DATE":"2019-11-11","SITE":"AFETR","DECAY_DATE":null,"DECAYED":0,"FILE":2829291,"GP_ID":161775687,"TLE_LINE0":"0 STARLINK-1033","TLE_LINE1":"1 44738U 19074AB  20264.58334491 -.00003964  00000-0 -25289-3 0  9991","TLE_LINE2":"2 44738  52.9986 167.4902 0001826  64.6525 194.4588 15.05595494 47783"},"version":"v1.0","launch":"5eb87d39ffd86e000604b37d","longitude":-176.46922080645305,"latitude":-51.448569889061886,"height_km":568.7129333835155,"velocity_kms":7.575827872608783,"id":"5eed7714096e590006985690"},{"spaceTrack":{"CCSDS_OMM_VERS":"2.0","COMMENT":"GENERATED VIA SPACE-TRACK.ORG API","CREATION_DATE":"2020-09-19 22:46:10","ORIGINATOR":"18 SPCS","OBJECT_NAME":"STARLINK-1067","OBJECT_ID":"2019-074BL","CENTER_NAME":"EARTH","REF_FRAME":"TEME","TIME_SYSTEM":"UTC","MEAN_ELEMENT_THEORY":"SGP4","EPOCH":"2020-09-19 20:00:01.000224","MEAN_MOTION":15.05606714,"ECCENTRICITY":0.0001447,"INCLINATION":53.0014,"RA_OF_ASC_NODE":190.8517,"ARG_OF_PERICENTER":79.2585,"MEAN_ANOMALY":162.7236,"EPHEMERIS_TYPE":0,"CLASSIFICATION_TYPE":"U","NORAD_CAT_ID":44771,"ELEMENT_SET_NO":999,"REV_AT_EPOCH":4740,"BSTAR":0.000066594,"MEAN_MOTION_DOT":0.00000692,"MEAN_MOTION_DDOT":0,"SEMIMAJOR_AXIS":6927.78,"PERIOD":95.642,"APOAPSIS":550.648,"PERIAPSIS":548.643,"OBJECT_TYPE":"PAYLOAD","RCS_SIZE":"LARGE","COUNTRY_CODE":"US","LAUNCH_DATE":"2019-11-11","SITE":"AFETR","DECAY_DATE":null,"DECAYED":0,"FILE":2828430,"GP_ID":161736587,"TLE_LINE0":"0 STARLINK-1067","TLE_LINE1":"1 44771U 19074BL  20263.83334491  .00000692  00000-0  66594-4 0  9993","TLE_LINE2":"2 44771  53.0014 190.8517 0001447  79.2585 162.7236 15.05606714 47408"},"version":"v1.0","launch":"5eb87d39ffd86e000604b37d","longitude":-53.96600406698773,"latitude":-9.69441223629811,"height_km":552.337057890255,"velocity_kms":7.5861784747356165,"id":"5eed7714096e59000698569c"},{"spaceTrack":{"CCSDS_OMM_VERS":"2.0","COMMENT":"GENERATED VIA SPACE-TRACK.ORG API","CREATION_DATE":"2020-09-20 14:46:10","ORIGINATOR":"18 SPCS","OBJECT_NAME":"STARLINK-1068","OBJECT_ID":"2019-074BM","CENTER_NAME":"EARTH","REF_FRAME":"TEME","TIME_SYSTEM":"UTC","MEAN_ELEMENT_THEORY":"SGP4","EPOCH":"2020-09-20 14:00:01.000224","MEAN_MOTION":15.05552314,"ECCENTRICITY":0.0001543,"INCLINATION":52.9992,"RA_OF_ASC_NODE":167.4862,"ARG_OF_PERICENTER":86.5184,"MEAN_ANOMALY":298.5202,"EPHEMERIS_TYPE":0,"CLASSIFICATION_TYPE":"U","NORAD_CAT_ID":44772,"ELEMENT_SET_NO":999,"REV_AT_EPOCH":4778,"BSTAR":0.0056975,"MEAN_MOTION_DOT":0.00083661,"MEAN_MOTION_DDOT":0,"SEMIMAJOR_AXIS":6927.947,"PERIOD":95.645,"APOAPSIS":550.881,"PERIAPSIS":548.743,"OBJECT_TYPE":"PAYLOAD","RCS_SIZE":"LARGE","COUNTRY_CODE":"US","LAUNCH_DATE":"2019-11-11","SITE":"AFETR","DECAY_DATE":null,"DECAYED":0,"FILE":2829294,"GP_ID":161775225,"TLE_LINE0":"0 STARLINK-1068","TLE_LINE1":"1 44772U 19074BM  20264.58334491  .00083661  00000-0  56975-2 0  9994","TLE_LINE2":"2 44772  52.9992 167.4862 0001543  86.5184 298.5202 15.05552314 47786"},"version":"v1.0","launch":"5eb87d39ffd86e000604b37d","longitude":-51.9029744382649,"latitude":18.712043761468067,"height_km":549.6470126157938,"velocity_kms":7.590165863141181,"id":"5eed7714096e5900069856a8"}]